{
  "norad_id": 55438,
  "name": "STARLINK-5074",
  "history": [
    {
      "epoch": "2026-04-10T00:34:15.880224Z",
      "apogee_km": 574.1006094612494,
      "perigee_km": 570.0105601289497,
      "latitude_deg": 1.407648691136261e-05,
      "longitude_deg": 138.45135421602234,
      "height_km": 574.4628983582186,
      "semi_major_axis_km": 6950.1925847951,
      "eccentricity": 0.00029424,
      "inclination_deg": 69.9997,
      "raan_deg": 345.2811,
      "arg_perigee_deg": 270.562,
      "mean_anomaly_deg": 89.5202,
      "mean_motion_rev_day": 14.98330099
    },
    {
      "epoch": "2026-04-11T15:01:29.435232Z",
      "apogee_km": 574.0695990338236,
      "perigee_km": 570.0412674995014,
      "latitude_deg": 2.3784471382959516e-05,
      "longitude_deg": -83.97476479728905,
      "height_km": 574.2179754874163,
      "semi_major_axis_km": 6950.192433266662,
      "eccentricity": 0.0002898,
      "inclination_deg": 70.0,
      "raan_deg": 341.2407,
      "arg_perigee_deg": 277.5529,
      "mean_anomaly_deg": 82.5301,
      "mean_motion_rev_day": 14.98330148
    },
    {
      "epoch": "2026-04-13T02:16:26.961600Z",
      "apogee_km": 573.9260249025874,
      "perigee_km": 570.2069710108308,
      "latitude_deg": 3.115711023748327e-05,
      "longitude_deg": 102.13400579479206,
      "height_km": 574.6584103125556,
      "semi_major_axis_km": 6950.203497956709,
      "eccentricity": 0.00026755,
      "inclination_deg": 70.0001,
      "raan_deg": 337.5368,
      "arg_perigee_deg": 264.9164,
      "mean_anomaly_deg": 95.169,
      "mean_motion_rev_day": 14.9832657
    },
    {
      "epoch": "2026-04-14T08:42:59.892480Z",
      "apogee_km": 574.0782871652054,
      "perigee_km": 570.0331360032096,
      "latitude_deg": -5.062965249970045e-05,
      "longitude_deg": 1.049037008481567,
      "height_km": 574.4796921695969,
      "semi_major_axis_km": 6950.192711584207,
      "eccentricity": 0.00029101,
      "inclination_deg": 69.999,
      "raan_deg": 334.3393,
      "arg_perigee_deg": 270.094,
      "mean_anomaly_deg": 89.9885,
      "mean_motion_rev_day": 14.98330058
    },
    {
      "epoch": "2026-04-15T18:21:49.099968Z",
      "apogee_km": 574.1050078952867,
      "perigee_km": 570.0057844200319,
      "latitude_deg": -7.144441518247192e-06,
      "longitude_deg": -148.57280923146098,
      "height_km": 574.4838146033113,
      "semi_major_axis_km": 6950.192396157659,
      "eccentricity": 0.0002949,
      "inclination_deg": 69.9986,
      "raan_deg": 330.8043,
      "arg_perigee_deg": 269.9689,
      "mean_anomaly_deg": 90.1132,
      "mean_motion_rev_day": 14.9833016
    },
    {
      "epoch": "2026-04-16T21:36:04.643136Z",
      "apogee_km": 574.1108962734415,
      "perigee_km": 569.9088374777293,
      "latitude_deg": 3.749483638409112e-05,
      "longitude_deg": 158.88213532666353,
      "height_km": 574.4350496300414,
      "semi_major_axis_km": 6950.146866875585,
      "eccentricity": 0.0003023,
      "inclination_deg": 69.9987,
      "raan_deg": 327.9426,
      "arg_perigee_deg": 270.0604,
      "mean_anomaly_deg": 90.0209,
      "mean_motion_rev_day": 14.98344883
    },
    {
      "epoch": "2026-04-17T23:14:14.720352Z",
      "apogee_km": 574.2222761839466,
      "perigee_km": 569.9036999193722,
      "latitude_deg": 7.607017061575669e-07,
      "longitude_deg": 130.59419638493873,
      "height_km": 574.4775415979365,
      "semi_major_axis_km": 6950.19998805166,
      "eccentricity": 0.00031068,
      "inclination_deg": 69.9982,
      "raan_deg": 325.2495,
      "arg_perigee_deg": 270.3416,
      "mean_anomaly_deg": 89.7387,
      "mean_motion_rev_day": 14.98327705
    },
    {
      "epoch": "2026-04-18T20:03:59.633568Z",
      "apogee_km": 573.8659799537872,
      "perigee_km": 570.2087981902587,
      "latitude_deg": -9.678726172234711e-06,
      "longitude_deg": 175.11203174666886,
      "height_km": 574.3475814435279,
      "semi_major_axis_km": 6950.174389072023,
      "eccentricity": 0.0002631,
      "inclination_deg": 69.9982,
      "raan_deg": 323.0599,
      "arg_perigee_deg": 273.6605,
      "mean_anomaly_deg": 86.4253,
      "mean_motion_rev_day": 14.98335983
    },
    {
      "epoch": "2026-04-19T20:06:00.881280Z",
      "apogee_km": 574.0008096653264,
      "perigee_km": 570.1662339990216,
      "latitude_deg": -2.061852650655743e-05,
      "longitude_deg": 171.09519976998564,
      "height_km": 574.4201125717817,
      "semi_major_axis_km": 6950.220521832174,
      "eccentricity": 0.00027586,
      "inclination_deg": 69.9984,
      "raan_deg": 320.5353,
      "arg_perigee_deg": 272.705,
      "mean_anomaly_deg": 87.3793,
      "mean_motion_rev_day": 14.98321065
    },
    {
      "epoch": "2026-04-21T20:10:03.189216Z",
      "apogee_km": 573.9832103854787,
      "perigee_km": 570.1508678783011,
      "latitude_deg": -2.707579332965576e-05,
      "longitude_deg": 163.06132223137075,
      "height_km": 574.4203281461943,
      "semi_major_axis_km": 6950.20403913189,
      "eccentricity": 0.0002757,
      "inclination_deg": 69.9979,
      "raan_deg": 315.4851,
      "arg_perigee_deg": 272.206,
      "mean_anomaly_deg": 87.8783,
      "mean_motion_rev_day": 14.98326395
    }
  ]
}